ARIANE 5 R/B            
1 28499U 04049H   26057.04523839  .00000762  00000+0  90351-4 0  9999
2 28499  98.2609 225.0681 0084766  29.6028 330.9945 14.85240261144061
CZ-2D R/B               
1 28738U 05024B   26057.28834490  .00043043  00000+0  55194-3 0  9997
2 28738  97.3620  72.0271 0007334  74.4264 285.7802 15.59011046138006
ALOS (DAICHI)           
1 28931U 06002A   26056.45314133  .00001371  00000+0  23809-3 0  9990
2 28931  98.1197  12.4722 0001446  53.7253 306.4086 14.69763473 71687
H-2A R/B                
1 28932U 06002B   26057.12649078  .00008357  00000+0  42278-3 0  9997
2 28932  98.2385 203.1603 0051935 280.9051  78.6338 15.16137625 92681
RESURS-DK 1             
1 29228U 06021A   26057.02955765  .00002154  00000+0  12902-3 0  9999
2 29228  69.9312 267.1863 0002779 170.8611 189.2606 15.12659706 85767
CZ-4B R/B               
1 29507U 06046C   26057.13067496  .00004876  00000+0  24882-3 0  9996
2 29507  97.5626 102.0705 0031987 309.3597  50.4802 15.16765125 58291
CZ-2C R/B               
1 31114U 07010B   26057.24250805  .00000106  00000+0  67989-4 0  9993
2 31114  98.3974 171.0954 0058298 328.4198  31.3485 14.20241578978097
COSMO-SKYMED 1          
1 31598U 07023A   26057.23060729  .00002485  00000+0  22436-3 0  9995
2 31598  97.8878 248.1717 0001200  81.2730 278.8627 14.96435362 13196
COSMOS 2428             
1 31792U 07029A   26056.92432333  .00000161  00000+0  11186-3 0  9995
2 31792  70.9408 228.0385 0008435 289.6724  70.3487 14.12942598962436
SL-16 R/B               
1 31793U 07029B   26057.31390174 -.00000218  00000+0 -88016-4 0  9998
2 31793  70.9755 196.2952 0002468 280.3239  98.2002 14.14835352963767
KORONAS-FOTON           
1 33504U 09003A   26057.09233520  .00011369  00000+0  25669-3 0  9991
2 33504  82.4296 287.9332 0010214 190.1055 169.9989 15.42998813943952
CZ-2C R/B               
1 37731U 11030B   26056.67694151  .00001571  00000+0  20397-3 0  9991
2 37731  97.8521  14.1831 0053526  30.9095 148.2048 14.81166195788316
H-2A R/B                
1 38341U 12025E   26056.88281947  .00003218  00000+0  29445-3 0  9995
2 38341  98.4702  22.9874 0044655 353.2098   6.8509 14.95047080746459
SHIJIAN-16 (SJ-16)      
1 39358U 13057A   26057.29920333  .00001884  00000+0  18691-3 0  9993
2 39358  74.9715 206.6491 0015989 141.6946 218.5381 14.92286149669807
SL-4 R/B                
1 39679U 14021B   26057.20010127  .00017319  00000+0  38526-3 0  9992
2 39679  51.6078  33.3120 0098380  61.0990 299.9820 15.38741073654506
ALOS-2                  
1 39766U 14029A   26057.28891520  .00001604  00000+0  22154-3 0  9999
2 39766  97.9194 156.0504 0001621  99.6893 260.4502 14.79489881635188
YAOGAN-29               
1 41038U 15069A   26057.32415736  .00000516  00000+0  70177-4 0  9995
2 41038  98.0165  85.7232 0002551  55.6273 304.5181 14.82981670554197
ASTRO-H (HITOMI)        
1 41337U 16012A   26057.19797352  .00003255  00000+0  19011-3 0  9990
2 41337  30.9998  70.6999 0009949 217.2509 142.7439 15.09908110550492
HXMT (HUIYAN)           
1 42758U 17034A   26057.32387067  .00005373  00000+0  27315-3 0  9995
2 42758  43.0145  79.8536 0031480 165.0755 195.1028 15.17295182480816
CZ-2C R/B               
1 43521U 18054D   26057.53663457  .02430769  14458-5  89860-3 0  9994
2 43521  35.1228  15.9588 0010145 213.6157 146.3948 16.23297010427111
SAOCOM 1A               
1 43641U 18076A   26057.21622289  .00000755  00000+0  10141-3 0  9998
2 43641  97.8888 245.5506 0001322  82.2924 277.8439 14.82154858399669
H-2A R/B                
1 43682U 18084L   26057.17514531  .00018421  00000+0  44675-3 0  9995
2 43682  98.8752 272.1063 0026152  64.0728 296.3205 15.40782207404009
SAOCOM 1B               
1 46265U 20059A   26057.24746037 -.00000128  00000+0 -95497-5 0  9993
2 46265  97.8887 244.6792 0001446  83.1589 276.9789 14.82156024297059
CSS (TIANHE)            
1 48274U 21035A   26057.06690971  .00010434  00000+0  12875-3 0  9991
2 48274  41.4663 278.8535 0005884 197.5112 162.5524 15.60105415275793
COSMOS 2550             
1 48865U 21056A   26056.97558723 -.00000187  00000+0  14482-6 0  9991
2 48865  67.1417  76.3657 0008332 269.3874  90.6325 15.33840518261662
CZ-2C R/B               
1 52794U 22058K   26057.25786834  .00033161  00000+0  50069-3 0  9993
2 52794  50.1896  17.0542 0042071 152.0014 208.3232 15.53355385208355
CZ-2C R/B               
1 54039U 22132E   26056.96294647  .00041516  00000+0  49490-3 0  9992
2 54039  97.2969  59.9351 0020525 128.7827 231.5268 15.60709863188544
GSLV R/B                
1 54149U 22138AN  26057.28812834  .00003030  00000+0  26197-3 0  9998
2 54149  87.3876 170.1775 0021412 186.8784 173.2157 14.96676379182223
XRISM                   
1 57800U 23137A   26057.21557490  .00006247  00000+0  35565-3 0  9994
2 57800  31.0036 357.8684 0008277 284.0816  75.8902 15.11340348136055
ACS3                    
1 59588U 24077B   26057.26299740  .00021143  00000+0  17223-1 0  9990
2 59588  97.2124   0.9442 0052162 108.6042 252.0796 13.89060315 92613
SZ-21 MODULE            
1 66515U 25246C   26057.29092261  .00035556  00000+0  31875-3 0  9993
2 66515  41.4745 273.4799 0001437 288.9252  71.1434 15.67575585 16283
